KUIPER-00074            
1 64821U 25151F   26025.48406570  .00009608  00000+0  12850-2 0  9994
2 64821  51.8987 121.6450 0010852 129.7237 230.4683 14.79987362 29044
KUIPER-00075            
1 64822U 25151G   26025.38887195  .00076594  00000+0  18762-2 0  9996
2 64822  51.8741  72.3026 0003363 111.9309 248.2037 15.40061581 29726
KUIPER-00076            
1 64823U 25151H   26025.54872410  .00009426  00000+0  12600-2 0  9994
2 64823  51.8997 123.8512 0001681 154.1176 205.9871 14.80055534 29027
KUIPER-00077            
1 64824U 25151J   26025.54363754  .00013879  00000+0  18458-2 0  9995
2 64824  51.8986 128.8845 0004242 104.3104 255.8330 14.79931021 28951
KUIPER-00078            
1 64825U 25151K   26025.64761433  .00008550  00000+0  11501-2 0  9995
2 64825  51.8986 125.9171 0001748 166.2810 193.8200 14.79898619 29000
KUIPER-00079            
1 64826U 25151L   26025.54074059  .00009147  00000+0  12288-2 0  9992
2 64826  51.8989 131.3690 0001247 118.2666 241.8422 14.79878939 30118
KUIPER-00080            
1 64827U 25151M   26025.43964945  .00008846  00000+0  11883-2 0  9998
2 64827  51.8988 131.8235 0001451 151.5359 208.5683 14.79916653 28903
KUIPER-00082            
1 64828U 25151N   26025.48686692  .00009042  00000+0  12145-2 0  9995
2 64828  51.9009 119.1370 0000507  77.1964 282.9055 14.79895864 29083
KUIPER-00083            
1 64829U 25151P   26025.54630201  .00004607  00000+0  63334-3 0  9997
2 64829  51.9001 126.3663 0002385 141.9928 218.1203 14.79907298 30170
KUIPER-00084            
1 64830U 25151Q   26025.60301106 -.00001201  00000+0 -12841-3 0  9991
2 64830  51.8994 136.1001 0008350  79.8189 280.3715 14.79870679 28856
KUIPER-00085            
1 64831U 25151R   26025.45310013  .00005195  00000+0  71050-3 0  9993
2 64831  51.9018 119.3073 0000393 150.0305 210.0680 14.79900231 29072
KUIPER-00086            
1 64832U 25151S   26025.64484128  .00006584  00000+0  89334-3 0  9991
2 64832  51.8992 128.4389 0002444 116.0006 244.1209 14.79864017 28966
KUIPER-00087            
1 64833U 25151T   26025.52855154  .00005929  00000+0  80466-3 0  9999
2 64833  51.8987 111.4379 0000724  61.8746 298.2289 14.80005258 29188
KUIPER-00089            
1 64834U 25151U   26025.52333742  .00009026  00000+0  12125-2 0  9992
2 64834  51.8988 116.4699 0000421 178.7564 181.3400 14.79895562 29124
KUIPER-00090            
1 64835U 25151V   26025.59896218  .00008596  00000+0  11562-2 0  9997
2 64835  51.8976 108.6745 0001054 122.9458 237.1606 14.79895199 29239
KUIPER-00091            
1 64836U 25151W   26025.45835425  .00011519  00000+0  15346-2 0  9999
2 64836  51.8969 114.2587 0005676 154.7305 205.3936 14.80003199 29143
KUIPER-00092            
1 64837U 25151X   26025.45044410  .00007082  00000+0  95674-3 0  9999
2 64837  51.9008 121.7967 0002013 134.7225 225.3902 14.79947673 30256
KUIPER-00093            
1 64838U 25151Y   26025.51523921  .00009121  00000+0  12249-2 0  9998
2 64838  51.8997 123.9933 0001918 152.3518 207.7547 14.79899054 29014
KUIPER-00094            
1 64839U 25151Z   26025.61382688  .00015795  00000+0  11025-2 0  9998
2 64839  51.8888 100.4816 0004773 121.1208 239.0235 15.05493863 29353
KUIPER-00081            
1 65132U 25171A   26025.16502590  .00008949  00000+0  11982-2 0  9998
2 65132  51.9019 340.5374 0001593  79.3495 280.7646 14.80042024 26595
KUIPER-00088            
1 65133U 25171B   26025.19162140  .00009985  00000+0  12851-2 0  9992
2 65133  51.9029 358.3952 0000780 145.4441 214.6573 14.81598826 26344
KUIPER-00095            
1 65134U 25171C   26025.05980327 -.00006630  00000+0 -55841-3 0  9996
2 65134  51.8936 338.9315 0003961 340.5145  19.5672 14.96288784 26607
KUIPER-00096            
1 65135U 25171D   26025.12057132  .00007405  00000+0  10001-2 0  9991
2 65135  51.9004 350.7471 0002077  73.5582 286.5609 14.79902433 26448
KUIPER-00097            
1 65136U 25171E   26025.18517438  .00010237  00000+0  13654-2 0  9992
2 65136  51.9030 353.0787 0002900  45.9619 314.1582 14.80067678 26402
KUIPER-00098            
1 65137U 25171F   26025.11466582  .00009306  00000+0  12433-2 0  9998
2 65137  51.9022 355.7699 0007054   2.0884 358.0107 14.80083133 25715
KUIPER-00099            
1 65138U 25171G   26025.56494564  .00008655  00000+0  11630-2 0  9993
2 65138  51.9043 343.7597 0001374  87.8881 272.2238 14.79927065 26576
KUIPER-00100            
1 65139U 25171H   26025.06113280  .00008946  00000+0  12006-2 0  9993
2 65139  51.9032 343.4738 0000732  85.6028 274.5018 14.79943569 26539
KUIPER-00102            
1 65140U 25171J   26025.59895910  .00006314  00000+0  85550-3 0  9992
2 65140  51.9001 343.6351 0000818  85.5808 274.5248 14.79982901 26572
KUIPER-00103            
1 65141U 25171K   26025.14113724  .00008853  00000+0  11917-2 0  9995
2 65141  51.9003   3.1481 0002514  22.7385 337.3688 14.79825967 26265
KUIPER-00104            
1 65142U 25171L   26025.62065218  .00011987  00000+0  17228-2 0  9996
2 65142  51.9036 348.4093 0004726  49.0066 311.1304 14.76744148 26512
KUIPER-00105            
1 65143U 25171M   26025.11243033  .00006701  00000+0  90625-3 0  9995
2 65143  51.9026 358.3497 0002291  29.7642 330.3450 14.79972839 26338
KUIPER-00106            
1 65144U 25171N   26025.18665185  .00018391  00000+0  15940-2 0  9993
2 65144  51.8969 352.6232 0006654 325.2536  34.7998 14.97112454 26422
KUIPER-00107            
1 65145U 25171P   26025.06384961  .00008360  00000+0  11233-2 0  9997
2 65145  51.9036 341.0041 0001011  87.6379 272.4699 14.79966404 26572
KUIPER-00108            
1 65146U 25171Q   26025.15166241  .00003162  00000+0  44303-3 0  9997
2 65146  51.9037 353.1215 0002501  21.9567 338.1502 14.79993268 26410
KUIPER-00109            
1 65147U 25171R   26025.66671296  .00050529  00000+0  66363-2 0  9993
2 65147  51.9026 345.7903 0006171  13.1707   3.3900 14.79739123  2466
KUIPER-00110            
1 65148U 25171S   26025.61622069  .00008497  00000+0  11427-2 0  9991
2 65148  51.9007 358.6076 0002729  52.8757 307.2455 14.79913983 26364
KUIPER-00111            
1 65149U 25171T   26025.23950475  .00008329  00000+0  11210-2 0  9999
2 65149  51.8984   5.1946 0002628  25.1736 334.9354 14.79900112 26248
KUIPER-00112            
1 65150U 25171U   26025.08951805  .00008758  00000+0  11770-2 0  9999
2 65150  51.9030 348.3965 0000962 100.9503 259.1567 14.79908850 26464
KUIPER-00114            
1 65151U 25171V   26025.23673352  .00008585  00000+0  11550-2 0  9999
2 65151  51.9017   7.7529 0002413  22.3469 337.7598 14.79885036 26202
KUIPER-00115            
1 65152U 25171W   26025.17747722  .00009318  00000+0  12484-2 0  9998
2 65152  51.9019   0.5010 0001769  63.2549 296.8595 14.79973759 26300
KUIPER-00116            
1 65153U 25171X   26025.20581031  .00008719  00000+0  11719-2 0  9996
2 65153  51.9011   5.4152 0005639 321.1090  38.9466 14.79904218 26239
KUIPER-00118            
1 65154U 25171Y   26025.13553516  .00008982  00000+0  12055-2 0  9992
2 65154  51.9012   8.1816 0001176  36.0729 324.0312 14.79941158 26199
KUIPER-00119            
1 65155U 25171Z   26025.62093301  .00006755  00000+0  91103-3 0  9996
2 65155  51.9028 353.6120 0007766 348.1400  11.9378 14.80068908 26433
KUIPER-00120            
1 65762U 25217A   26025.87538764  .00004032  00000+0  60424-3 0  9993
2 65762  51.8971 241.8787 0003624 137.3767 222.7476 14.76466969 18406
KUIPER-00132            
1 65763U 25217B   26025.50225328  .00052738  00000+0  13677-2 0  9996
2 65763  51.8640 212.9285 0007862 177.3050 182.7981 15.38461020 18777
KUIPER-00133            
1 65764U 25217C   26025.62205802  .00002168  00000+0  31354-3 0  9990
2 65764  51.9013 243.5510 0002178 199.3948 160.6932 14.79908978 18367
KUIPER-00139            
1 65765U 25217D   26025.59289179  .00008258  00000+0  63691-3 0  9991
2 65765  51.8841 231.1304 0008149 171.0626 189.0492 15.02338113 18534
KUIPER-00142            
1 65766U 25217E   26025.53975534  .00003904  00000+0  54058-3 0  9993
2 65766  51.8973 226.4040 0000145  31.5132 328.5839 14.79951137 18596
KUIPER-00145            
1 65767U 25217F   26025.80713796  .00004897  00000+0  67097-3 0  9993
2 65767  51.8984 227.7345 0001504  79.8474 280.2658 14.79928021 18594
KUIPER-00147            
1 65768U 25217G   26024.96028197  .00003193  00000+0  44760-3 0  9994
2 65768  51.9027 233.9776 0000989 242.7375 117.3487 14.79941120 18436
KUIPER-00148            
1 65769U 25217H   26025.57903354  .00010960  00000+0  69251-3 0  9992
2 65769  51.8766 224.4621 0009756 197.6318 162.4319 15.09476271 18626
KUIPER-00150            
1 65770U 25217J   26025.62468284  .00004293  00000+0  59076-3 0  9994
2 65770  51.8996 241.0342 0000974 105.0381 255.0689 14.80010186 18394
KUIPER-00151            
1 65771U 25217K   26025.83542876  .00004593  00000+0  63059-3 0  9997
2 65771  51.8990 232.5995 0000923 115.9718 244.1339 14.79969701 18537
KUIPER-00152            
1 65772U 25217L   26025.83336806 -.00023055  00000+0 -28777-2 0  9995
2 65772  51.8992 220.1338 0000596 358.2127  84.1134 14.81745172  5590
KUIPER-00153            
1 65773U 25217M   26025.85753366  .00012898  00000+0  74944-3 0  9991
2 65773  51.8770 226.9933 0012753 175.5068 184.6024 15.12350854 18617
KUIPER-00155            
1 65774U 25217N   26024.95276603  .00025723  00000+0  11217-2 0  9990
2 65774  51.8807 218.2798 0005812 194.7766 165.3045 15.21991818 18652
KUIPER-00156            
1 65775U 25217P   26025.83336806 -.00044208  00000+0 -44335-2 0  9999
2 65775  51.8946 215.5855 0005022 309.4633  81.9067 14.90959747  3754
KUIPER-00158            
1 65776U 25217Q   26025.79887731  .00006993  00000+0  94377-3 0  9992
2 65776  51.8957 235.2483 0000869 129.5030 230.6009 14.80001351 18493
KUIPER-00163            
1 65777U 25217R   26025.59376667  .00004630  00000+0  63579-3 0  9998
2 65777  51.8956 238.6609 0001106 111.6452 248.4628 14.79944039 18429
